NORAD_CAT_ID,OBJECT_NAME,OBJECT_TYPE,EPOCH,MEAN_MOTION,ECCENTRICITY,INCLINATION,RA_OF_ASC_NODE,ARG_OF_PERICENTER,MEAN_ANOMALY,BSTAR,MEAN_MOTION_DOT,MEAN_MOTION_DDOT,TLE_LINE0,TLE_LINE1,TLE_LINE2,SEMIMAJOR_AXIS,PERIOD,APOGEE,PERIGEE,DECAYED
49142.0,STARLINK-3042,PAYLOAD,2024-07-09 14:49:36,14.98330941,0.0003124,70.0007,347.6189,267.6763,92.4038,2.2077e-05,1.7e-06,0.0,0 STARLINK-3042,1 49142U 21082N   24191.61778818  .00000170  00000-0  22077-4 0  9996,2 49142  70.0007 347.6189 0003124 267.6763  92.4038 14.98330941155886,6950.19,96.107,574.226,569.884,0.0
49142.0,STARLINK-3042,PAYLOAD,2024-07-09 19:38:01,14.9833143,0.0003117,70.0007,347.1139,267.6873,92.3929,2.6555e-05,2.24e-06,0.0,0 STARLINK-3042,1 49142U 21082N   24191.81806762  .00000224  00000-0  26555-4 0  9993,2 49142  70.0007 347.1139 0003117 267.6873  92.3929 14.98331430155916,6950.188,96.107,574.22,569.887,0.0
49142.0,STARLINK-3042,PAYLOAD,2024-07-10 11:39:21,14.98328117,0.0003135,70.0006,345.4306,269.7765,90.3035,-3.8156e-06,-1.39e-06,0.0,0 STARLINK-3042,1 49142U 21082N   24192.48567040 -.00000139  00000-0 -38156-5 0  9998,2 49142  70.0006 345.4306 0003135 269.7765  90.3035 14.98328117156011,6950.199,96.107,574.243,569.885,0.0
49142.0,STARLINK-3042,PAYLOAD,2024-07-10 19:40:02,14.98329078,0.000316,70.0006,344.589,269.6691,90.4106,-2.5901e-06,-1.24e-06,0.0,0 STARLINK-3042,1 49142U 21082N   24192.81946985 -.00000124  00000-0 -25901-5 0  9992,2 49142  70.0006 344.5890 0003160 269.6691  90.4106 14.98329078156066,6950.196,96.107,574.257,569.864,0.0
49142.0,STARLINK-3042,PAYLOAD,2024-07-11 13:17:30,14.983304,0.0003181,70.0006,342.7375,269.6688,90.4106,1.5553e-05,9.3e-07,0.0,0 STARLINK-3042,1 49142U 21082N   24193.55382839  .00000093  00000-0  15553-4 0  9990,2 49142  70.0006 342.7375 0003181 269.6688  90.4106 14.98330400156176,6950.192,96.107,574.268,569.846,0.0
49142.0,STARLINK-3042,PAYLOAD,2024-07-11 18:05:54,14.9833184,0.0003189,70.0006,342.2327,269.9082,90.1711,2.5132e-05,2.07e-06,0.0,0 STARLINK-3042,1 49142U 21082N   24193.75410721  .00000207  00000-0  25132-4 0  9995,2 49142  70.0006 342.2327 0003189 269.9082  90.1711 14.98331840156209,6950.187,96.107,574.269,569.836,0.0
49142.0,STARLINK-3042,PAYLOAD,2024-07-12 03:42:43,14.9833025,0.0003222,70.0004,341.222,270.2444,89.8345,1.3987e-05,7.4e-07,0.0,0 STARLINK-3042,1 49142U 21082N   24194.15466826  .00000074  00000-0  13987-4 0  9994,2 49142  70.0004 341.2220 0003222 270.2444  89.8345 14.98330250156261,6950.192,96.107,574.296,569.818,0.0
49142.0,STARLINK-3042,PAYLOAD,2024-07-12 11:43:23,14.98328732,0.0003241,70.0001,340.38,269.7083,90.3705,4.9081e-05,4.93e-06,0.0,0 STARLINK-3042,1 49142U 21082N   24194.48846820  .00000493  00000-0  49081-4 0  9995,2 49142  70.0001 340.3800 0003241 269.7083  90.3705 14.98328732156310,6950.197,96.107,574.314,569.809,0.0
49142.0,STARLINK-3042,PAYLOAD,2024-07-12 18:07:55,14.9833181,0.0003277,70.0005,339.7072,270.9202,89.1581,3.872e-05,3.69e-06,0.0,0 STARLINK-3042,1 49142U 21082N   24194.75550670  .00000369  00000-0  38720-4 0  9990,2 49142  70.0005 339.7072 0003277 270.9202  89.1581 14.98331810156356,6950.187,96.107,574.33,569.775,0.0
49142.0,STARLINK-3042,PAYLOAD,2024-07-13 13:21:32,14.98332238,0.0003213,70.0008,337.6872,271.6388,88.4403,3.6831e-05,3.46e-06,0.0,0 STARLINK-3042,1 49142U 21082N   24195.55662596  .00000346  00000-0  36831-4 0  9996,2 49142  70.0008 337.6872 0003213 271.6388  88.4403 14.98332238156470,6950.186,96.107,574.284,569.818,0.0
49142.0,STARLINK-3042,PAYLOAD,2024-07-13 19:46:04,14.98334938,0.0003219,70.0009,337.014,271.6887,88.3903,6.4571e-05,6.78e-06,0.0,0 STARLINK-3042,1 49142U 21082N   24195.82366322  .00000678  00000-0  64571-4 0  9994,2 49142  70.0009 337.0140 0003219 271.6887  88.3903 14.98334938156511,6950.178,96.107,574.28,569.805,0.0
49142.0,STARLINK-3042,PAYLOAD,2024-07-14 13:23:33,14.98330063,0.0003171,70.0011,335.1626,271.7676,88.312,3.8264e-07,-8.8e-07,0.0,0 STARLINK-3042,1 49142U 21082N   24196.55802711 -.00000088  00000-0  38264-6 0  9990,2 49142  70.0011 335.1626 0003171 271.7676  88.3120 14.98330063156624,6950.193,96.107,574.262,569.854,0.0
49142.0,STARLINK-3042,PAYLOAD,2024-07-14 18:11:57,14.98332392,0.0003089,70.0013,334.6582,270.2716,89.8089,4.8152e-05,4.82e-06,0.0,0 STARLINK-3042,1 49142U 21082N   24196.75830416  .00000482  00000-0  48152-4 0  9997,2 49142  70.0013 334.6582 0003089 270.2716  89.8089 14.98332392156658,6950.185,96.107,574.197,569.904,0.0
49142.0,STARLINK-3042,PAYLOAD,2024-07-15 13:25:34,14.98330987,0.0003084,70.0014,332.6386,267.5375,92.5431,-1.0208e-05,-2.15e-06,0.0,0 STARLINK-3042,1 49142U 21082N   24197.55942554 -.00000215  00000-0 -10208-4 0  9990,2 49142  70.0014 332.6386 0003084 267.5375  92.5431 14.98330987156777,6950.19,96.107,574.198,569.911,0.0
49142.0,STARLINK-3042,PAYLOAD,2024-07-15 15:01:42,14.98331724,0.0003079,70.0014,332.4703,267.992,92.0887,-1.2766e-06,-1.08e-06,0.0,0 STARLINK-3042,1 49142U 21082N   24197.62618479 -.00000108  00000-0 -12766-5 0  9997,2 49142  70.0014 332.4703 0003079 267.9920  92.0887 14.98331724156783,6950.188,96.107,574.193,569.913,0.0
49142.0,STARLINK-3042,PAYLOAD,2024-07-15 18:13:58,14.98332854,0.0003073,70.0014,332.1336,268.3126,91.7681,1.1882e-05,4.9e-07,0.0,0 STARLINK-3042,1 49142U 21082N   24197.75970360  .00000049  00000-0  11882-4 0  9990,2 49142  70.0014 332.1336 0003073 268.3126  91.7681 14.98332854156805,6950.184,96.107,574.185,569.913,0.0
49142.0,STARLINK-3042,PAYLOAD,2024-07-16 13:27:35,14.98329009,0.000313,70.0013,330.1138,270.1405,89.9395,1.4606e-05,8.1e-07,0.0,0 STARLINK-3042,1 49142U 21082N   24198.56082512  .00000081  00000-0  14606-4 0  9996,2 49142  70.0013 330.1138 0003130 270.1405  89.9395 14.98329009156929,6950.196,96.107,574.236,569.886,0.0
49142.0,STARLINK-3042,PAYLOAD,2024-07-16 16:39:51,14.98332216,0.0003117,70.0013,329.7772,270.2404,89.8398,3.3792e-05,3.1e-06,0.0,0 STARLINK-3042,1 49142U 21082N   24198.69434246  .00000310  00000-0  33792-4 0  9997,2 49142  70.0013 329.7772 0003117 270.2404  89.8398 14.98332216156940,6950.186,96.107,574.217,569.885,0.0
49142.0,STARLINK-3042,PAYLOAD,2024-07-17 13:29:37,14.98320276,0.0003084,70.0015,327.5897,268.9635,91.1171,-5.7674e-05,-7.81e-06,0.0,0 STARLINK-3042,1 49142U 21082N   24199.56223467 -.00000781  00000-0 -57674-4 0  9994,2 49142  70.0015 327.5897 0003084 268.9635  91.1171 14.98320276157072,6950.223,96.108,574.231,569.945,0.0
49142.0,STARLINK-3042,PAYLOAD,2024-07-17 15:05:45,14.98322283,0.0003176,70.0014,327.4214,271.1906,88.8889,-3.6345e-05,-5.27e-06,0.0,0 STARLINK-3042,1 49142U 21082N   24199.62899315 -.00000527  00000-0 -36345-4 0  9992,2 49142  70.0014 327.4214 0003176 271.1906  88.8889 14.98322283157082,6950.217,96.107,574.289,569.874,0.0
49142.0,STARLINK-3042,PAYLOAD,2024-07-17 18:18:01,14.98323419,0.000309,70.0013,327.0846,268.9851,91.0954,-3.8606e-05,-5.54e-06,0.0,0 STARLINK-3042,1 49142U 21082N   24199.76251303 -.00000554  00000-0 -38606-4 0  9998,2 49142  70.0013 327.0846 0003090 268.9851  91.0954 14.98323419157100,6950.213,96.107,574.226,569.931,0.0
49142.0,STARLINK-3042,PAYLOAD,2024-07-18 13:31:36,14.9833627,0.0003085,70.0012,325.0642,271.3311,88.7495,0.00010113,1.114e-05,0.0,0 STARLINK-3042,1 49142U 21082N   24200.56362158  .00001114  00000-0  10113-3 0  9993,2 49142  70.0012 325.0642 0003085 271.3311  88.7495 14.98336270157229,6950.174,96.107,574.183,569.894,0.0
49142.0,STARLINK-3042,PAYLOAD,2024-07-18 18:20:00,14.98342566,0.0003002,70.0013,324.5593,270.4531,89.6284,0.00015217,1.724e-05,0.0,0 STARLINK-3042,1 49142U 21082N   24200.76389528  .00001724  00000-0  15217-3 0  9992,2 49142  70.0013 324.5593 0003002 270.4531  89.6284 14.98342566157256,6950.154,96.106,574.105,569.933,0.0
49142.0,STARLINK-3042,PAYLOAD,2024-07-19 11:57:30,14.9832042,0.0002337,70.0031,322.7089,259.7589,100.3307,0.00011224,1.246e-05,0.0,0 STARLINK-3042,1 49142U 21082N   24201.49827041  .00001246  00000-0  11224-3 0  9993,2 49142  70.0031 322.7089 0002337 259.7589 100.3307 14.98320420157363,6950.223,96.108,573.712,570.463,0.0
49142.0,STARLINK-3042,PAYLOAD,2024-07-19 15:09:46,14.98326862,0.000192,70.0031,322.3724,249.0541,111.0413,7.6279e-07,-8.4e-07,0.0,0 STARLINK-3042,1 49142U 21082N   24201.63179006 -.00000084  00000-0  76279-6 0  9994,2 49142  70.0031 322.3724 0001920 249.0541 111.0413 14.98326862157387,6950.203,96.107,573.402,570.733,0.0
49142.0,STARLINK-3042,PAYLOAD,2024-07-19 18:22:03,14.98319831,0.0002683,70.0028,322.0364,265.6424,94.4428,3.422e-05,3.15e-06,0.0,0 STARLINK-3042,1 49142U 21082N   24201.76531419  .00000315  00000-0  34220-4 0  9992,2 49142  70.0028 322.0364 0002683 265.6424  94.4428 14.98319831157402,6950.224,96.108,573.954,570.225,0.0
49142.0,STARLINK-3042,PAYLOAD,2024-07-20 00:46:34,14.98367289,0.0002805,70.0026,321.3633,267.7361,92.3477,-0.00067773,-8.178e-05,0.0,0 STARLINK-3042,1 49142U 21082N   24202.03233917 -.00008178  00000-0 -67773-3 0  9990,2 49142  70.0026 321.3633 0002805 267.7361  92.3477 14.98367289157445,6950.078,96.105,573.892,569.993,0.0
49142.0,STARLINK-3042,PAYLOAD,2024-07-20 13:35:38,14.98341705,0.0002954,70.0013,320.0143,268.1357,91.9464,1.1511e-06,-7.9e-07,0.0,0 STARLINK-3042,1 49142U 21082N   24202.56641956 -.00000079  00000-0  11511-5 0  9996,2 49142  70.0013 320.0143 0002954 268.1357  91.9464 14.98341705157523,6950.157,96.106,574.075,569.969,0.0
49142.0,STARLINK-3042,PAYLOAD,2024-07-20 18:24:02,14.98347729,0.0002953,70.0014,319.5097,265.6178,94.4644,8.3666e-05,9.06e-06,0.0,0 STARLINK-3042,1 49142U 21082N   24202.76669166  .00000906  00000-0  83666-4 0  9998,2 49142  70.0014 319.5097 0002953 265.6178  94.4644 14.98347729157550,6950.138,96.106,574.055,569.951,0.0
49142.0,STARLINK-3042,PAYLOAD,2024-07-21 00:48:34,14.98344135,0.0003082,70.0016,318.8319,286.5354,73.5467,-4.3222e-05,-6.09e-06,0.0,0 STARLINK-3042,1 49142U 21082N   24203.03373601 -.00000609  00000-0 -43222-4 0  9991,2 49142  70.0016 318.8319 0003082 286.5354  73.5467 14.98344135157596,6950.149,96.106,574.156,569.872,0.0
